{
  "type": "FeatureCollection",
  "features": [
    {
      "type": "Feature",
      "properties": {
        "norad_id": 38116,
        "name": "FENGYUN 1C DEB",
        "group": "fengyun-1c-debris",
        "lat": -1.4360684964177053,
        "lon": -143.91960287372265,
        "alt_km": 816.8210836537128,
        "timestamp": "2025-12-23T18:59:32.255828+00:00",
        "meta_object_name": "FENGYUN 1C DEB",
        "meta_object_id": "1999-025EPM",
        "meta_epoch": "2025-12-21T08:35:05.821728",
        "meta_mean_motion": 14.17033054,
        "meta_eccentricity": 0.00724673,
        "meta_inclination": 98.7117,
        "meta_ra_of_asc_node": 33.9167,
        "meta_arg_of_pericenter": 122.4097,
        "meta_mean_anomaly": 250.3573,
        "meta_ephemeris_type": 0,
        "meta_classification_type": "U",
        "meta_norad_cat_id": 38116,
        "meta_element_set_no": 999,
        "meta_rev_at_epoch": 64607,
        "meta_bstar": 0.00039691226,
        "meta_mean_motion_dot": 7.76e-06,
        "meta_mean_motion_ddot": 0,
        "tle_line1": "1 38116U 99025EPM 25355.35770627  .00000776  00000+0  39691-3 0  9991",
        "tle_line2": "2 38116  98.7117  33.9167 0072467 122.4097 250.3573 14.17033054646070"
      },
      "geometry": {
        "type": "Point",
        "coordinates": [
          -143.91960287372265,
          -1.4360684964177053
        ]
      }
    },
    {
      "type": "Feature",
      "properties": {
        "norad_id": 38121,
        "name": "FENGYUN 1C DEB",
        "group": "fengyun-1c-debris",
        "lat": -73.62164827975917,
        "lon": -177.2560789972111,
        "alt_km": 973.4653495459852,
        "timestamp": "2025-12-23T18:59:32.255837+00:00",
        "meta_object_name": "FENGYUN 1C DEB",
        "meta_object_id": "1999-025EPS",
        "meta_epoch": "2025-12-13T04:20:01.430304",
        "meta_mean_motion": 14.21784212,
        "meta_eccentricity": 0.02064826,
        "meta_inclination": 99.1148,
        "meta_ra_of_asc_node": 138.6695,
        "meta_arg_of_pericenter": 126.4735,
        "meta_mean_anomaly": 235.5664,
        "meta_ephemeris_type": 0,
        "meta_classification_type": "U",
        "meta_norad_cat_id": 38121,
        "meta_element_set_no": 999,
        "meta_rev_at_epoch": 83926,
        "meta_bstar": 0.0016630973,
        "meta_mean_motion_dot": 4.5e-05,
        "meta_mean_motion_ddot": 0,
        "tle_line1": "1 38121U 99025EPS 25347.18057211  .00004500  00000+0  16631-2 0  9993",
        "tle_line2": "2 38121  99.1148 138.6695 0206482 126.4735 235.5664 14.21784212839268"
      },
      "geometry": {
        "type": "Point",
        "coordinates": [
          -177.2560789972111,
          -73.62164827975917
        ]
      }
    },
    {
      "type": "Feature",
      "properties": {
        "norad_id": 38122,
        "name": "FENGYUN 1C DEB",
        "group": "fengyun-1c-debris",
        "lat": -34.22714387121935,
        "lon": 5.674588803501391,
        "alt_km": 906.2021175348982,
        "timestamp": "2025-12-23T18:59:32.255846+00:00",
        "meta_object_name": "FENGYUN 1C DEB",
        "meta_object_id": "1999-025EPT",
        "meta_epoch": "2025-12-20T11:15:30.693600",
        "meta_mean_motion": 14.42669791,
        "meta_eccentricity": 0.02281626,
        "meta_inclination": 98.3168,
        "meta_ra_of_asc_node": 356.7199,
        "meta_arg_of_pericenter": 133.5612,
        "meta_mean_anomaly": 228.4777,
        "meta_ephemeris_type": 0,
        "meta_classification_type": "U",
        "meta_norad_cat_id": 38122,
        "meta_element_set_no": 999,
        "meta_rev_at_epoch": 67850,
        "meta_bstar": 0.00022815826,
        "meta_mean_motion_dot": 9.88e-06,
        "meta_mean_motion_ddot": 0,
        "tle_line1": "1 38122U 99025EPT 25354.46910525  .00000988  00000+0  22816-3 0  9998",
        "tle_line2": "2 38122  98.3168 356.7199 0228162 133.5612 228.4777 14.42669791678507"
      },
      "geometry": {
        "type": "Point",
        "coordinates": [
          5.674588803501391,
          -34.22714387121935
        ]
      }
    },
    {
      "type": "Feature",
      "properties": {
        "norad_id": 38124,
        "name": "FENGYUN 1C DEB",
        "group": "fengyun-1c-debris",
        "lat": 7.926115531125432,
        "lon": 128.97755148709763,
        "alt_km": 1170.1095930484735,
        "timestamp": "2025-12-23T18:59:32.255855+00:00",
        "meta_object_name": "FENGYUN 1C DEB",
        "meta_object_id": "1999-025EPV",
        "meta_epoch": "2025-12-20T14:53:13.924320",
        "meta_mean_motion": 13.40937676,
        "meta_eccentricity": 0.03554197,
        "meta_inclination": 97.8099,
        "meta_ra_of_asc_node": 305.4265,
        "meta_arg_of_pericenter": 285.6733,
        "meta_mean_anomaly": 70.5462,
        "meta_ephemeris_type": 0,
        "meta_classification_type": "U",
        "meta_norad_cat_id": 38124,
        "meta_element_set_no": 999,
        "meta_rev_at_epoch": 54687,
        "meta_bstar": 0.00016826009,
        "meta_mean_motion_dot": 1.02e-06,
        "meta_mean_motion_ddot": 0,
        "tle_line1": "1 38124U 99025EPV 25354.62030005  .00000102  00000+0  16826-3 0  9996",
        "tle_line2": "2 38124  97.8099 305.4265 0355419 285.6733  70.5462 13.40937676546878"
      },
      "geometry": {
        "type": "Point",
        "coordinates": [
          128.97755148709763,
          7.926115531125432
        ]
      }
    },
    {
      "type": "Feature",
      "properties": {
        "norad_id": 38130,
        "name": "FENGYUN 1C DEB",
        "group": "fengyun-1c-debris",
        "lat": -61.68050609379763,
        "lon": -147.858155671687,
        "alt_km": 875.7925880102839,
        "timestamp": "2025-12-23T18:59:32.255864+00:00",
        "meta_object_name": "FENGYUN 1C DEB",
        "meta_object_id": "1999-025EQB",
        "meta_epoch": "2025-11-28T09:19:02.490528",
        "meta_mean_motion": 13.7720595,
        "meta_eccentricity": 0.02085156,
        "meta_inclination": 98.6035,
        "meta_ra_of_asc_node": 25.4413,
        "meta_arg_of_pericenter": 263.5047,
        "meta_mean_anomaly": 94.2329,
        "meta_ephemeris_type": 0,
        "meta_classification_type": "U",
        "meta_norad_cat_id": 38130,
        "meta_element_set_no": 999,
        "meta_rev_at_epoch": 69085,
        "meta_bstar": 0.0016964005,
        "meta_mean_motion_dot": 1.933e-05,
        "meta_mean_motion_ddot": 0,
        "tle_line1": "1 38130U 99025EQB 25332.38822327  .00001933  00000+0  16964-2 0  9993",
        "tle_line2": "2 38130  98.6035  25.4413 0208515 263.5047  94.2329 13.77205950690851"
      },
      "geometry": {
        "type": "Point",
        "coordinates": [
          -147.858155671687,
          -61.68050609379763
        ]
      }
    },
    {
      "type": "Feature",
      "properties": {
        "norad_id": 38135,
        "name": "FENGYUN 1C DEB",
        "group": "fengyun-1c-debris",
        "lat": -0.8779414239211993,
        "lon": 54.57588468184327,
        "alt_km": 686.5583844554976,
        "timestamp": "2025-12-23T18:59:32.255873+00:00",
        "meta_object_name": "FENGYUN 1C DEB",
        "meta_object_id": "1999-025EQG",
        "meta_epoch": "2025-12-20T10:07:36.417792",
        "meta_mean_motion": 14.25297349,
        "meta_eccentricity": 0.02226674,
        "meta_inclination": 98.6595,
        "meta_ra_of_asc_node": 51.1134,
        "meta_arg_of_pericenter": 49.0857,
        "meta_mean_anomaly": 312.9371,
        "meta_ephemeris_type": 0,
        "meta_classification_type": "U",
        "meta_norad_cat_id": 38135,
        "meta_element_set_no": 999,
        "meta_rev_at_epoch": 61150,
        "meta_bstar": 0.00027123211,
        "meta_mean_motion_dot": 7.8e-06,
        "meta_mean_motion_ddot": 0,
        "tle_line1": "1 38135U 99025EQG 25354.42194928  .00000780  00000+0  27123-3 0  9995",
        "tle_line2": "2 38135  98.6595  51.1134 0222667  49.0857 312.9371 14.25297349611502"
      },
      "geometry": {
        "type": "Point",
        "coordinates": [
          54.57588468184327,
          -0.8779414239211993
        ]
      }
    },
    {
      "type": "Feature",
      "properties": {
        "norad_id": 38137,
        "name": "FENGYUN 1C DEB",
        "group": "fengyun-1c-debris",
        "lat": -53.9258979493789,
        "lon": 52.673326867251696,
        "alt_km": 881.1938750421887,
        "timestamp": "2025-12-23T18:59:32.255882+00:00",
        "meta_object_name": "FENGYUN 1C DEB",
        "meta_object_id": "1999-025EQJ",
        "meta_epoch": "2025-12-11T22:03:53.453088",
        "meta_mean_motion": 14.06158007,
        "meta_eccentricity": 0.0046494,
        "meta_inclination": 98.8649,
        "meta_ra_of_asc_node": 28.6821,
        "meta_arg_of_pericenter": 71.683,
        "meta_mean_anomaly": 288.9388,
        "meta_ephemeris_type": 0,
        "meta_classification_type": "U",
        "meta_norad_cat_id": 38137,
        "meta_element_set_no": 999,
        "meta_rev_at_epoch": 63697,
        "meta_bstar": 0.00049172,
        "meta_mean_motion_dot": 7.73e-06,
        "meta_mean_motion_ddot": 0,
        "tle_line1": "1 38137U 99025EQJ 25345.91936867  .00000773  00000+0  49172-3 0  9997",
        "tle_line2": "2 38137  98.8649  28.6821 0046494  71.6830 288.9388 14.06158007636976"
      },
      "geometry": {
        "type": "Point",
        "coordinates": [
          52.673326867251696,
          -53.9258979493789
        ]
      }
    }
  ]
}